{
"type": "FeatureCollection",
"name": "TramePollinisateursGjson",
"crs": { "type": "name", "properties": { "name": "urn:ogc:def:crs:EPSG::2154" } },
"features": [
{ "type": "Feature", "properties": { "id": 1, "long_km": 27.352 }, "geometry": { "type": "MultiLineString", "coordinates": [ [ [ 724295.621987958205864, 6640216.674323916435242 ], [ 724015.454496869700961, 6640589.9661615928635 ], [ 723742.070304475957528, 6640788.15779326017946 ], [ 723559.895155608071946, 6640902.173670509830117 ], [ 723278.015254334663041, 6640955.422207091003656 ], [ 723190.043901392258704, 6640991.312821167521179 ], [ 722850.432492391904816, 6641095.683851133100688 ], [ 722695.700086643337272, 6641167.556919415481389 ], [ 722365.305125231156126, 6641241.79636235255748 ], [ 722137.04272400715854, 6641545.869823607616127 ], [ 721963.697348168119788, 6641744.479257239028811 ], [ 721738.753396851127036, 6641979.124803281389177 ], [ 721623.075378459179774, 6642147.752357349731028 ], [ 721471.089481185656041, 6642310.210584103129804 ], [ 721367.386803948902525, 6642521.134593744762242 ], [ 721269.149057977600023, 6642901.095811278559268 ], [ 721123.03489011421334, 6643123.925941529683769 ], [ 721012.902591419871897, 6643449.488503470085561 ], [ 720942.504454580135643, 6643669.54993658233434 ], [ 720971.69324203801807, 6643980.48226569313556 ], [ 721019.821726599824615, 6644068.162882901728153 ], [ 721140.19514673599042, 6644270.764271575957537 ], [ 721169.519455369445495, 6644539.42354238871485 ], [ 721171.451673980802298, 6644850.216315634548664 ], [ 721122.525863421848044, 6644991.853832665830851 ], [ 720976.878329977625981, 6645096.944522894918919 ], [ 720858.568985070334747, 6645174.97786439023912 ], [ 720740.241894674370997, 6645259.046561594121158 ], [ 720500.818207705277018, 6645354.770164890214801 ], [ 720337.133996023098007, 6645429.638794299215078 ], [ 720212.644715924281627, 6645549.896430919878185 ], [ 720109.243602484697476, 6645700.393163680098951 ], [ 719639.241497408831492, 6646908.468167586252093 ], [ 719498.777947940630838, 6647303.123920286074281 ], [ 719471.050137027283199, 6647456.849715531803668 ], [ 719488.615589188877493, 6647637.861325449310243 ], [ 719478.737855522194877, 6647885.12523319106549 ], [ 719438.6492916214047, 6648120.21872141957283 ], [ 719149.7199076062534, 6648604.786841194145381 ], [ 719022.027892959769815, 6648809.423645840957761 ], [ 718842.76522640872281, 6649065.151982858777046 ], [ 718657.637454828596674, 6649266.585863071493804 ], [ 718520.958844702341594, 6649453.093097476288676 ], [ 718335.632914547808468, 6649726.879341877996922 ], [ 718162.493288615602069, 6649976.578129568137228 ], [ 718083.457278556306846, 6650111.999379828572273 ], [ 717868.344866190338507, 6650247.012191555462778 ], [ 717665.630495613906533, 6650282.587057954631746 ], [ 717441.400594342150725, 6650438.685720323584974 ], [ 717217.156434877309948, 6650603.831760048866272 ], [ 716820.554752084310167, 6650774.524904083460569 ], [ 716696.35537907271646, 6650855.563649886287749 ], [ 716635.631001136731356, 6650945.822006354108453 ], [ 716580.905711237108335, 6651054.181127005256712 ], [ 716504.934774146880955, 6651192.62126852106303 ], [ 716428.7776560789207, 6651400.380608042702079 ], [ 716394.746439515729435, 6651683.595059486106038 ], [ 716336.99256659054663, 6651797.962409533560276 ], [ 716152.162734378245659, 6651951.163197938352823 ], [ 715942.853714608238079, 6652218.817446313798428 ], [ 715606.594902168842964, 6652489.149092205800116 ], [ 715276.672585292020813, 6652657.050406890921295 ], [ 714356.599669139599428, 6653133.882948553189635 ], [ 713373.855946700205095, 6653318.422752551734447 ], [ 712411.706486772862263, 6653804.444729568436742 ], [ 711855.840381685760804, 6653691.847401382401586 ], [ 711378.608126481762156, 6653540.280511979945004 ], [ 710992.416115567204542, 6653174.988835360854864 ], [ 710515.981471058097668, 6652532.314686864614487 ], [ 709695.070775007246993, 6651723.287218509241939 ], [ 709405.461393019766547, 6651324.991315383464098 ], [ 709051.980516990995966, 6651149.633352102711797 ], [ 708583.387071942561306, 6651109.761927946470678 ], [ 708027.022909542312846, 6651130.091106242500246 ], [ 707410.202861085650511, 6651141.354576458223164 ], [ 706624.129968286841176, 6651095.224395872093737 ], [ 706034.578814177424647, 6651049.391085994429886 ], [ 706034.578814177424647, 6651049.391085994429886 ], [ 706032.500139800948091, 6651049.341901420615613 ], [ 706030.563054518774152, 6651049.434147372841835 ], [ 706002.075919051654637, 6651048.604974650777876 ] ] ] } },
{ "type": "Feature", "properties": { "id": 2, "long_km": 38.788 }, "geometry": { "type": "MultiLineString", "coordinates": [ [ [ 694098.395009152009152, 6701129.074658277444541 ], [ 694165.826654981821775, 6701096.501065752469003 ], [ 694208.545047477004118, 6701087.49184565898031 ], [ 694274.861982240574434, 6701063.887915063649416 ], [ 694405.241229053353891, 6701008.837429919280112 ], [ 694487.988618066185154, 6700968.125492298044264 ], [ 694541.864289991208352, 6700862.704431210644543 ], [ 694529.378028169507161, 6700734.922514786012471 ], [ 694554.91196615959052, 6700682.772084849886596 ], [ 694568.383437234908342, 6700658.377629812806845 ], [ 694621.181113661383279, 6700599.756085073575377 ], [ 694673.44264654291328, 6700569.160917574539781 ], [ 694727.952233668183908, 6700536.882497911341488 ], [ 694764.489231787389144, 6700526.200341523624957 ], [ 694784.168076920206659, 6700526.183073061518371 ], [ 694833.631970997201279, 6700509.604512183927 ], [ 694857.80624321103096, 6700506.500704589299858 ], [ 694908.676385255646892, 6700490.201762142591178 ], [ 694933.126895645866171, 6700481.212484768591821 ], [ 694973.321881414740346, 6700473.611303010955453 ], [ 695000.878154419595376, 6700480.3144341846928 ], [ 695012.128929222119041, 6700487.031320041045547 ], [ 695024.498570372350514, 6700487.020972371101379 ], [ 695077.318007835419849, 6700447.459839118644595 ], [ 695098.109868037747219, 6700433.149155566468835 ], [ 695122.279307742603123, 6700423.600269229151309 ], [ 695155.167554293526337, 6700418.528629840351641 ], [ 695249.319087706971914, 6700383.979916052892804 ], [ 695324.651749865501188, 6700369.90688238106668 ], [ 695329.150768944295123, 6700371.024426374584436 ], [ 695369.620508725871332, 6700353.616145907901227 ], [ 695389.856118170777336, 6700345.752898709848523 ], [ 695437.07689953467343, 6700332.824108720757067 ], [ 695458.990507834358141, 6700313.188402320258319 ], [ 695553.425139054772444, 6700276.681768167763948 ], [ 695677.648733539273962, 6700222.217110243625939 ], [ 695760.286942737177014, 6700198.053964021615684 ], [ 695783.342558907344937, 6700200.840360787697136 ], [ 695796.833405163371935, 6700195.225291455164552 ], [ 695816.491292810766026, 6700163.820370622910559 ], [ 695829.980684143607505, 6700155.963114538230002 ], [ 695863.145533042028546, 6700141.36548023764044 ], [ 695914.86535959970206, 6700125.634118775837123 ], [ 695931.154551132232882, 6700100.397713881917298 ], [ 695950.802407385548577, 6700052.736331757158041 ], [ 695956.954951724386774, 6700004.523210714571178 ], [ 695983.917851523961872, 6699963.583120428957045 ], [ 696011.440803873701952, 6699918.718443738296628 ], [ 696035.048496964504011, 6699904.688180083408952 ], [ 696116.020973014761694, 6699904.074243240058422 ], [ 696198.651775550679304, 6699858.613719946704805 ], [ 696238.569820939912461, 6699848.497837794013321 ], [ 696249.263370332191698, 6699863.626893831416965 ], [ 696247.042369084083475, 6699908.474883579649031 ], [ 696263.92295337410178, 6699926.402812534943223 ], [ 696289.788484946708195, 6699925.26548561360687 ], [ 696307.763273338903673, 6699894.422406703233719 ], [ 696317.301438988768496, 6699860.220926500856876 ], [ 696342.581887387903407, 6699821.524872894398868 ], [ 696353.817976505029947, 6699804.700307684019208 ], [ 696372.347248086938635, 6699759.841626708395779 ], [ 696378.520552548230626, 6699739.656445605680346 ], [ 696390.876119546941482, 6699713.861471366137266 ], [ 696418.418798981583677, 6699694.784466585144401 ], [ 696547.11204851733055, 6699555.677993967197835 ], [ 696560.585651582106948, 6699516.427142259664834 ], [ 696575.760507992352359, 6699501.562031927518547 ], [ 696620.16750501585193, 6699468.740406698547304 ], [ 696642.364155210321769, 6699439.85578225646168 ], [ 696635.322521228692494, 6699418.275690250098705 ], [ 696630.531066578696482, 6699398.09582556411624 ], [ 696629.116919137886725, 6699383.520280502736568 ], [ 696653.543854869203642, 6699319.874738167971373 ], [ 696663.923301708535291, 6699276.419522893615067 ], [ 696678.509143842034973, 6699212.217821216210723 ], [ 696668.099685209919699, 6699202.412333108484745 ], [ 696668.094824180239812, 6699193.72231218777597 ], [ 696668.37130961031653, 6699185.312445241957903 ], [ 696679.333799353451468, 6699178.298221062868834 ], [ 696688.328138515469618, 6699171.565427393652499 ], [ 696703.20283155888319, 6699120.257558030076325 ], [ 696706.552344797528349, 6699075.40322043094784 ], [ 696724.530162774841301, 6699041.473393048159778 ], [ 696732.39274489111267, 6699021.565564506687224 ], [ 696729.848886814201251, 6698997.738727642223239 ], [ 696735.179827527841553, 6698976.150145929306746 ], [ 696746.979491291684099, 6698956.52029787003994 ], [ 696761.852789204684086, 6698900.725341886281967 ], [ 696786.273899924359284, 6698819.974446401000023 ], [ 696790.763846301008016, 6698802.590857332572341 ], [ 696797.507405929733068, 6698792.494913595728576 ], [ 696799.749992823926732, 6698779.317605590447783 ], [ 696820.772577416733839, 6698651.748962854035199 ], [ 696829.20126312924549, 6698637.166310679167509 ], [ 696840.162869363091886, 6698626.226843013428152 ], [ 696885.989215203910135, 6698603.494311817921698 ], [ 696896.393956718733534, 6698602.928179546259344 ], [ 696903.134569374029525, 6698586.383929964154959 ], [ 696913.525978788849898, 6698560.025396777316928 ], [ 696912.657039555371739, 6698511.2441969178617 ], [ 696916.310741913155653, 6698507.036971208639443 ], [ 696944.143059209454805, 6698490.201266393065453 ], [ 696957.906352961435914, 6698457.672787490300834 ], [ 696974.779224030324258, 6698456.542763122357428 ], [ 696986.017548167379573, 6698435.510179181583226 ], [ 696989.661148300976492, 6698411.117055086418986 ], [ 697002.589795251260512, 6698395.69070890173316 ], [ 697028.177390419295989, 6698387.5474191037938 ], [ 697042.515947333537042, 6698379.40980221144855 ], [ 697042.788128778454848, 6698361.186134667135775 ], [ 697034.894192759529687, 6698321.939185081981122 ], [ 697043.882019005599432, 6698298.664436384104192 ], [ 697089.966462756623514, 6698221.821138711646199 ], [ 697140.002225367468782, 6698171.61065053474158 ], [ 697211.404794630361721, 6698103.726555873639882 ], [ 697224.610438632429577, 6698076.524001374840736 ], [ 697272.965325459605083, 6698035.566669154912233 ], [ 697310.632901230594143, 6697993.212366910651326 ], [ 697334.239995906245895, 6697953.948476110585034 ], [ 697360.381630047922954, 6697921.412494668737054 ], [ 697370.215702859917656, 6697899.538230528123677 ], [ 697454.276852715760469, 6697822.956387406215072 ], [ 697491.392223946400918, 6697798.827260356396437 ], [ 697509.102972867665812, 6697778.91219549253583 ], [ 697567.562677292735316, 6697677.105725483968854 ], [ 697680.292386988177896, 6697533.497100113891065 ], [ 697740.990914078662172, 6697387.66340880189091 ], [ 697811.85850058530923, 6697350.622996103949845 ], [ 697898.390709828352556, 6697064.567137840203941 ], [ 697911.854096366208978, 6696954.635553916916251 ], [ 698095.187058033770882, 6696731.34911975543946 ], [ 698142.440788017236628, 6696713.386101829819381 ], [ 698227.930565332411788, 6696621.375209270976484 ], [ 698320.196679417858832, 6696607.887168949469924 ], [ 698365.191720827366225, 6696554.029085908085108 ], [ 698434.955205241334625, 6696545.036046855151653 ], [ 698473.207052143407054, 6696518.103117416612804 ], [ 698520.464726033620536, 6696504.629648488014936 ], [ 698590.219999396707863, 6696457.497080868110061 ], [ 698635.214505966054276, 6696385.690607724711299 ], [ 698713.972027684445493, 6696327.338209534995258 ], [ 698788.234416642808355, 6696291.423975659534335 ], [ 698941.249999723630026, 6696145.554267599247396 ], [ 699051.526170547585934, 6696105.148453270085156 ], [ 699056.022822501370683, 6696075.41806710883975 ], [ 699075.149959288770333, 6696051.294659737497568 ], [ 699098.213277235627174, 6696009.220413367263973 ], [ 699113.403445669915527, 6695994.633551875129342 ], [ 699117.902565458440222, 6695978.926371310837567 ], [ 699167.97790051496122, 6695954.798373570665717 ], [ 699184.856435531983152, 6695940.211326451040804 ], [ 699242.240606286912225, 6695863.35294109582901 ], [ 699242.237824656302109, 6695841.475522694177926 ], [ 699189.904213329660706, 6695819.604907901957631 ], [ 699175.83407091232948, 6695799.973116488195956 ], [ 699171.323977523017675, 6695738.828314724378288 ], [ 699195.517327340086922, 6695716.947126861661673 ], [ 699182.006744004436769, 6695675.997860764153302 ], [ 699154.991065222071484, 6695636.733184236101806 ], [ 699318.715037744725123, 6695410.0721678994596 ], [ 699475.138239124440588, 6695213.141818082891405 ], [ 699543.791908464743756, 6695182.280030169524252 ], [ 699578.680677893338725, 6695151.421165400184691 ], [ 699627.076965252519585, 6695134.026140258647501 ], [ 699684.476027993485332, 6695084.091246432624757 ], [ 699720.492586506297812, 6695073.429844290949404 ], [ 699822.351622464833781, 6695010.028952214866877 ], [ 699827.978272937703878, 6694972.439107402227819 ], [ 699855.553384486003779, 6694932.604278544895351 ], [ 699875.813190802931786, 6694918.016621789894998 ], [ 699912.9568744788412, 6694921.943290282972157 ], [ 699946.16093246510718, 6694914.088242066092789 ], [ 699970.923267808393575, 6694893.89033620711416 ], [ 699997.936921428772621, 6694887.718722359277308 ], [ 700024.950635684421286, 6694880.425123968161643 ], [ 700049.713317021261901, 6694867.521106882952154 ], [ 700089.671631819568574, 6694838.346821608021855 ], [ 700117.248505608993582, 6694829.370424795895815 ], [ 700126.253737287479453, 6694801.878844062797725 ], [ 700165.649930482846685, 6694777.754278743639588 ], [ 700211.799596775788814, 6694765.412407964468002 ], [ 700276.520948390476406, 6694771.025667562149465 ], [ 700337.867821657215245, 6694733.998715554364026 ], [ 700419.472933207405731, 6694745.786233256570995 ], [ 700541.040154361398891, 6694715.498551493510604 ], [ 700586.626952281570993, 6694716.624994968995452 ], [ 700611.954332489636727, 6694703.723016625270247 ], [ 700687.931627124547958, 6694712.70836435072124 ], [ 700709.882827270077541, 6694696.440000422298908 ], [ 700763.912791254813783, 6694689.713864978402853 ], [ 700802.1823151842691, 6694698.134909415617585 ], [ 700814.563750671688467, 6694699.81979051604867 ], [ 700834.827009446336888, 6694682.990552415139973 ], [ 700849.461603083997034, 6694671.21016277000308 ], [ 700869.722765501472168, 6694670.090944526717067 ], [ 700902.924727895413525, 6694693.660776936449111 ], [ 700915.30631653429009, 6694694.223733101971447 ], [ 700936.694695177837275, 6694682.44462051987648 ], [ 700963.147864561295137, 6694674.032796747982502 ], [ 700996.352624217863195, 6694678.52681010402739 ], [ 701010.422744929790497, 6694678.529178488999605 ], [ 701027.871242567664012, 6694669.555046781897545 ], [ 701045.882500828825869, 6694661.142122335731983 ], [ 701054.889390161726624, 6694649.92228118609637 ], [ 701112.862860269495286, 6694626.928828842006624 ], [ 701167.455071487347595, 6694628.62249274738133 ], [ 701204.598573628813028, 6694638.168132308870554 ], [ 701243.997051783488132, 6694629.199048776179552 ], [ 701308.725932176224887, 6694602.842377947643399 ], [ 701363.880992110236548, 6694605.099047268740833 ], [ 701443.238808770780452, 6694599.506968546658754 ], [ 701622.223804409150034, 6694560.277494551613927 ], [ 701661.052323108189739, 6694581.04812463466078 ], [ 701684.691622436512262, 6694577.127208514139056 ], [ 701696.515994429122657, 6694558.614933887496591 ], [ 701695.959882774855942, 6694535.049348101951182 ], [ 701689.784626516979188, 6694479.500148929655552 ], [ 701704.985357698984444, 6694463.793995276093483 ], [ 701779.282123015145771, 6694450.91063879430294 ], [ 701829.935630460851826, 6694453.731425290927291 ], [ 701924.484067151439376, 6694473.399328524246812 ], [ 701966.131392045528628, 6694478.462713656015694 ], [ 702035.921532910084352, 6694478.486140729859471 ], [ 702071.37279807543382, 6694497.575316318310797 ], [ 702113.010283083538525, 6694529.571760326623917 ], [ 702156.90589325199835, 6694541.370218169875443 ], [ 702189.541286866995506, 6694563.264279897324741 ], [ 702217.112370096729137, 6694581.790085539221764 ], [ 702235.681863915990107, 6694590.774268319830298 ], [ 702266.636798489955254, 6694590.224880784749985 ], [ 702279.027697618934326, 6694566.66430033929646 ], [ 702302.673529794788919, 6694547.035562702454627 ], [ 702334.76070536323823, 6694530.215571409091353 ], [ 702361.781566773890518, 6694516.199119337834418 ], [ 702372.829648235463537, 6694509.330217553302646 ], [ 702391.978613824816421, 6694476.794843051582575 ], [ 702428.00596928759478, 6694460.537828320637345 ], [ 702469.666439885972068, 6694433.061482698656619 ], [ 702496.688999037956819, 6694416.801040358841419 ], [ 702536.102582793449983, 6694380.346468505449593 ], [ 702555.259828625014052, 6694331.538991176523268 ], [ 702556.957968256669119, 6694309.095605210401118 ], [ 702582.294748209184036, 6694288.345646315254271 ], [ 702595.813698694924824, 6694263.662809699773788 ], [ 702644.797058549593203, 6694227.773310765624046 ], [ 702672.379347365116701, 6694221.613381730392575 ], [ 702681.954578619333915, 6694206.467636128887534 ], [ 702747.254676236188971, 6694185.736135428771377 ], [ 702763.590371566591784, 6694157.687847468070686 ], [ 702796.244589161244221, 6694139.186149321496487 ], [ 702817.071842851000838, 6694135.829234942793846 ], [ 702824.948902933509089, 6694142.005280683748424 ], [ 702826.063175822142512, 6694166.133901089429855 ], [ 702855.325361137161963, 6694179.053528816439211 ], [ 702873.325806679902598, 6694201.506779284216464 ], [ 702890.76871069567278, 6694212.737481432966888 ], [ 702908.222498365561478, 6694201.523701194673777 ], [ 702980.840231235488318, 6694181.359431498683989 ], [ 702996.05837906349916, 6694139.283221139572561 ], [ 703023.647132917656563, 6694121.902410465292633 ], [ 703035.480852120788768, 6694094.974534038454294 ], [ 703038.332329047610983, 6694022.029426772147417 ], [ 703057.49397445213981, 6693974.904051297344267 ], [ 703064.277848600060679, 6693917.671470401808619 ], [ 703059.236722088302486, 6693869.410599315539002 ], [ 703075.01765659369994, 6693830.138434413820505 ], [ 703104.920404423493892, 6693696.037882989272475 ], [ 703128.579477209947072, 6693662.941643703728914 ], [ 703159.577677380060777, 6693590.006176320835948 ], [ 703188.28926608664915, 6693583.848574617877603 ], [ 703213.628906226484105, 6693567.588175093755126 ], [ 703253.594577438547276, 6693569.293370849452913 ], [ 703305.394701295415871, 6693546.874895542860031 ], [ 703315.006946575944312, 6693469.9987284373492 ], [ 703365.683906009071507, 6693444.773856873624027 ], [ 703478.319896128610708, 6693356.170646745711565 ], [ 703567.316508068935946, 6693266.43165872618556 ], [ 703599.412113697966561, 6693252.982096415944397 ], [ 703616.298594441614114, 6693255.79832779429853 ], [ 703701.817958921194077, 6693332.1738689718768 ], [ 703913.455320001463406, 6693370.47019106335938 ], [ 703969.776550245587714, 6693327.85669360589236 ], [ 704062.102043739287183, 6693321.184526339173317 ], [ 704147.689718946930952, 6693289.816366924904287 ], [ 704217.501715149497613, 6693278.641341620124876 ], [ 704294.074080366990529, 6693260.737555547617376 ], [ 704336.860686320578679, 6693256.278905023820698 ], [ 704370.646906106965616, 6693242.834699120372534 ], [ 704467.472650929470547, 6693242.906462330371141 ], [ 704602.580072262207977, 6693240.764410321600735 ], [ 704690.412928961450234, 6693222.874301835894585 ], [ 704749.000047734123655, 6693171.289527214132249 ], [ 704791.834544734214433, 6693108.467883858829737 ], [ 704789.591748792328872, 6693097.241742135956883 ], [ 704861.659028621623293, 6693086.075707343406975 ], [ 704899.901239903294481, 6693133.24918601475656 ], [ 704962.910613405285403, 6693182.687942514196038 ], [ 705012.398913036333397, 6693243.339665226638317 ], [ 705043.84951026912313, 6693330.913354625925422 ], [ 705154.149264479754493, 6693371.413638493046165 ], [ 705232.957247489714064, 6693373.727053381502628 ], [ 705313.986870864988305, 6693409.714885291643441 ], [ 705404.034464052063413, 6693432.243315800093114 ], [ 705455.841820528497919, 6693412.087758285924792 ], [ 705509.8555948715657, 6693441.31914347410202 ], [ 705536.890425888122991, 6693425.630975559353828 ], [ 705638.227200812776573, 6693414.50219595618546 ], [ 705680.985910083167255, 6693439.235004826448858 ], [ 705719.255981743219309, 6693448.250556872226298 ], [ 705795.819781662197784, 6693441.590271095745265 ], [ 705831.892874212469906, 6693394.485681967809796 ], [ 705871.281119503430091, 6693411.360012290999293 ], [ 705893.792550723534077, 6693416.994103438220918 ], [ 705924.229476072592661, 6693377.740994919091463 ], [ 705926.495690129348077, 6693363.152251285500824 ], [ 705952.393786599044688, 6693359.810892389155924 ], [ 705979.484183252090588, 6693290.249645418487489 ], [ 706007.619669097242877, 6693301.501911002211273 ], [ 706041.408269604085945, 6693289.189669886603951 ], [ 706050.466500045033172, 6693238.690663225017488 ], [ 706063.981644685729407, 6693234.214755725115538 ], [ 706086.486688901903108, 6693246.58418223913759 ], [ 706147.325871371896937, 6693206.239790910854936 ], [ 706162.026210308657028, 6693144.521817231550813 ], [ 706190.148057021200657, 6693169.244282172061503 ], [ 706202.535233466303907, 6693167.01231079082936 ], [ 706223.956531101022847, 6693138.97400600835681 ], [ 706266.757260983809829, 6693123.304828744381666 ], [ 706358.048787059029564, 6693035.85124633461237 ], [ 706395.175248603220098, 6693062.829619822092354 ], [ 706477.371902239625342, 6693058.428577163256705 ], [ 706526.883928021998145, 6693084.29870062507689 ], [ 706574.222917977487668, 6693038.330570879392326 ], [ 706649.697069474495947, 6693004.740769647061825 ], [ 706698.116918855230324, 6693000.305151974782348 ], [ 706771.286848365794867, 6693013.857227761298418 ], [ 706847.814874174073339, 6693044.250736215151846 ], [ 706896.191711268853396, 6693076.857328595593572 ], [ 706976.046109427930787, 6693149.908353958278894 ], [ 707077.355639269924723, 6693167.986535324715078 ], [ 707111.097680907812901, 6693197.209600093774498 ], [ 707158.39042469591368, 6693192.776521055959165 ], [ 707221.385899419314228, 6693237.749039408750832 ], [ 707261.890300351544283, 6693260.246385554783046 ], [ 707347.321440281230025, 6693370.345778276212513 ], [ 707356.267361993552186, 6693419.741541908122599 ], [ 707317.922427239827812, 6693473.568144425749779 ], [ 707362.919877043110318, 6693502.804978552274406 ], [ 707351.622810121509247, 6693534.217039349488914 ], [ 707369.597176951123402, 6693565.665066932328045 ], [ 707394.100741250440478, 6693778.937809432856739 ], [ 707448.011970185209066, 6693880.011831428855658 ], [ 707493.002892203279771, 6693911.492235656827688 ], [ 707488.466041491948999, 6693938.421284597367048 ], [ 707488.429389549419284, 6693967.600413928739727 ], [ 707526.701848286087625, 6693969.893156957812607 ], [ 707533.478999737533741, 6693951.945324838161469 ], [ 707540.1823812618386, 6693992.355606453493237 ], [ 707585.211950151948258, 6693992.412729350849986 ], [ 707690.979313765768893, 6694032.949776027351618 ], [ 707789.917575175641105, 6694129.591918305493891 ], [ 707850.638111261767335, 6694181.294532195664942 ], [ 707891.101048080599867, 6694228.481575362384319 ], [ 707938.284582330845296, 6694300.366166789084673 ], [ 708017.027925021131523, 6694340.87101258803159 ], [ 708052.879686662578024, 6694466.604831978678703 ], [ 708030.245757503551431, 6694556.348040687851608 ], [ 708030.124823704594746, 6694646.120276079513133 ], [ 708057.018263432779349, 6694735.927620760165155 ], [ 708196.518451054464094, 6694789.97979861497879 ], [ 708376.177415442536585, 6695099.926619346253574 ], [ 708555.901434263214469, 6695351.518494432792068 ], [ 708605.195875646313652, 6695508.669490831904113 ], [ 708600.473873104667291, 6695661.250765665434301 ], [ 708663.191018780809827, 6695872.265806148760021 ], [ 708874.589503276627511, 6695989.255143747664988 ], [ 708941.754369933274575, 6696227.192730613984168 ], [ 709305.964712187531404, 6696479.039789139293134 ], [ 709530.681333554326557, 6696690.290481301955879 ], [ 709557.413369449204765, 6696860.839155388996005 ], [ 709525.778724644449539, 6696941.552739993669093 ], [ 709462.71151045942679, 6696977.347120031714439 ], [ 709422.212284673238173, 6696972.796095456928015 ], [ 709327.725558511912823, 6696954.700015648268163 ], [ 709282.781273389351554, 6696914.247938088141382 ], [ 709237.829422072391026, 6696878.282837162725627 ], [ 709237.829422072391026, 6696878.282837162725627 ], [ 709201.85784989525564, 6696855.792543785646558 ], [ 709098.353286569588818, 6696846.65972762927413 ], [ 708981.332459213328548, 6696846.482199263758957 ], [ 708918.247373203746974, 6696895.743605313822627 ], [ 708846.201844107243232, 6696918.070694372989237 ], [ 708855.096651777275838, 6696989.873684914782643 ], [ 708841.47473563614767, 6697070.615930476225913 ], [ 708841.408159843296744, 6697115.483402487821877 ], [ 708782.840864968020469, 6697155.777312377467752 ], [ 708773.76045020215679, 6697209.604212953709066 ], [ 708737.578590436954983, 6697330.689902453683317 ], [ 708683.36412934679538, 6697474.179453955031931 ], [ 708687.753244094434194, 6697550.45538342744112 ], [ 708782.146479613031261, 6697626.862333498895168 ], [ 708782.060511888354085, 6697685.184570735320449 ], [ 708921.39775954617653, 6697797.54838649649173 ], [ 709002.37213321949821, 6697815.615083969198167 ], [ 709150.86062985251192, 6697824.813731196336448 ], [ 709218.312971981009468, 6697856.321106275543571 ], [ 709272.173792399116792, 6697946.127753358334303 ], [ 709285.554839171934873, 6698022.412144420668483 ], [ 709330.265911086229607, 6698206.407749734818935 ], [ 709334.632133841980249, 6698291.646560660563409 ], [ 709365.967890390194952, 6698394.869667192921042 ], [ 709401.887066936469637, 6698444.269670977257192 ], [ 709644.654537584050559, 6698574.743033099919558 ], [ 709678.313301910413429, 6698628.625184561125934 ], [ 709790.655913925962523, 6698716.277526488527656 ], [ 709826.551132188178599, 6698776.891179425641894 ], [ 709813.038324645836838, 6698785.839895759709179 ], [ 709911.695322273531929, 6698983.361671101301908 ], [ 709943.159682923345827, 6699001.355464021675289 ], [ 709990.288163532502949, 6699068.713919884525239 ], [ 710039.755832139868289, 6699082.252921720035374 ], [ 710111.676909716799855, 6699120.499266111291945 ], [ 710174.652585872565396, 6699127.334366736933589 ], [ 710291.53562605951447, 6699181.357785889878869 ], [ 710386.011502574547194, 6699183.764369406737387 ], [ 710489.307656807359308, 6699287.104011280462146 ], [ 710556.621113466913812, 6699383.652225040830672 ], [ 710556.46014493284747, 6699474.473458808846772 ], [ 710538.357752280891873, 6699534.988316746428609 ], [ 710513.598681383766234, 6699543.914422032423317 ], [ 710517.962803936097771, 6699620.165405252948403 ], [ 710578.587798533961177, 6699680.818217100575566 ], [ 710648.244868768728338, 6699721.305634969845414 ], [ 710787.669893900398165, 6699739.495691403746605 ], [ 710915.831128337420523, 6699766.637834780849516 ], [ 711055.116930965217762, 6699858.831658350303769 ], [ 711091.042500530253164, 6699892.533555966801941 ], [ 711225.735463371383958, 6700031.809010714292526 ], [ 711295.243700105929747, 6700146.295729245990515 ], [ 711441.300883561489172, 6700218.325766899622977 ], [ 711587.411253514932469, 6700261.210151086561382 ], [ 711992.120260073337704, 6700327.034712227061391 ], [ 712129.314508148469031, 6700327.312559733167291 ], [ 712624.094369742553681, 6700337.309533320367336 ], [ 712750.206184697919525, 6700261.343939313665032 ], [ 713227.052512957248837, 6700246.688529375940561 ], [ 713379.95212537352927, 6700264.967699100263417 ], [ 713564.552738739410415, 6700189.150077086873353 ], [ 713699.578392954310402, 6700155.825654457323253 ], [ 713771.628990808851086, 6700122.358142847195268 ], [ 713839.228942084009759, 6700068.700550957582891 ], [ 713929.521439217729494, 6699929.88854845892638 ], [ 714010.762961383676156, 6699815.719472650438547 ], [ 714139.110278925276361, 6699757.720950261689723 ], [ 714256.261793546145782, 6699679.516076944768429 ], [ 714470.07349704997614, 6699628.455842522904277 ], [ 714833.95991384901572, 6699833.409455773420632 ], [ 715013.455148934968747, 6700011.003236132673919 ], [ 715114.424694781308062, 6700107.676586627960205 ], [ 715285.200389872421511, 6700170.895404502749443 ], [ 715330.171746906358749, 6700175.495469523593783 ], [ 715437.886502527166158, 6700269.946858564391732 ], [ 715521.115171319223009, 6700265.678789869882166 ], [ 715642.425722509273328, 6700319.808795188553631 ], [ 715826.833121428498998, 6700327.022564806975424 ], [ 715860.408182821585797, 6700387.650429051369429 ], [ 715905.26967917336151, 6700432.613046281039715 ], [ 715968.1588039068738, 6700464.171224508434534 ], [ 716055.87113968085032, 6700464.407062692567706 ], [ 716219.952921345015056, 6700500.725660877302289 ], [ 716289.635757102165371, 6700514.368540726602077 ], [ 716404.292302729911171, 6700530.378029501065612 ], [ 716516.462931895861402, 6700631.581939108669758 ], [ 716626.230581429321319, 6700786.588024725206196 ], [ 716697.818573200609535, 6700921.307375970296562 ], [ 716690.870895385043696, 6700993.030152344144881 ], [ 716731.173536175279878, 6701055.917026933282614 ], [ 716726.556260662153363, 6701098.50016682036221 ], [ 716800.658952558413148, 6701136.8208416569978 ], [ 716865.61958087712992, 6701226.678954143077135 ], [ 716876.66633522300981, 6701296.207045981660485 ], [ 716905.721474739024416, 6701359.060073607601225 ], [ 716952.848355589085259, 6701392.820905537344515 ], [ 717004.12632954469882, 6701547.648160139098763 ], [ 716992.672077049384825, 6701621.591933541931212 ], [ 716963.165685857878998, 6701717.900011572055519 ], [ 716998.989054788718931, 6701771.801816516555846 ], [ 716935.672845307155512, 6701897.151972310617566 ], [ 716931.048367658630013, 6701941.970537444576621 ], [ 717002.961194599978626, 6701955.624927891418338 ], [ 717092.513909102301113, 6702090.374203190207481 ], [ 717191.301996549707837, 6702139.971933334134519 ], [ 717231.254207554506138, 6702319.405072759836912 ], [ 717541.194010182633065, 6702432.381048823706806 ], [ 717630.767191849416122, 6702553.679784129373729 ], [ 717621.177106322022155, 6702755.369507612660527 ], [ 717521.809068028233014, 6702907.480928077362478 ], [ 717516.732469609123655, 6703104.689884983003139 ], [ 717677.805740925483406, 6703369.61520988214761 ], [ 717690.90704138414003, 6703499.633334924466908 ], [ 717774.297894018585794, 6703614.731742273084819 ], [ 717745.206941544311121, 6703759.184694881550968 ] ] ] } },
{ "type": "Feature", "properties": { "id": 3, "long_km": 7.96 }, "geometry": { "type": "MultiLineString", "coordinates": [ [ [ 717750.349677187623456, 6703730.628494433127344 ], [ 717737.82482362864539, 6703784.93297749850899 ], [ 717734.886561741936021, 6703828.061193735338748 ], [ 717725.800404507433996, 6703859.966489689424634 ], [ 717704.947039962513372, 6703880.632353852503002 ], [ 717671.059557954547927, 6703938.23376405891031 ], [ 717649.003062813426368, 6703985.785399972461164 ], [ 717635.350842806394212, 6704041.765028873458505 ], [ 717608.265942099387757, 6704079.778200674802065 ], [ 717617.097427989239804, 6704133.582794398069382 ], [ 717623.654583273804747, 6704196.343132477253675 ], [ 717643.630776192527264, 6704281.5496676703915 ], [ 717674.897432740079239, 6704348.863180335611105 ], [ 717679.132972698542289, 6704436.261589821428061 ], [ 717744.057596031925641, 6704521.598757987841964 ], [ 717763.024262059130706, 6704567.587754364125431 ], [ 717771.870340401073918, 6704615.786806749179959 ], [ 717863.670083275297657, 6704731.450373106636107 ], [ 717939.754865013877861, 6704840.344264155253768 ], [ 717981.189254368422553, 6704887.519538439810276 ], [ 718225.589199549285695, 6705071.979437929578125 ], [ 718238.95622476877179, 6705110.107231587171555 ], [ 718288.244894709787332, 6705159.547001210041344 ], [ 718333.086577899637632, 6705193.290544470772147 ], [ 718359.880743150599301, 6705249.38200016040355 ], [ 718398.035115192760713, 6705265.18223057128489 ], [ 718424.835280277533457, 6705319.033012700267136 ], [ 718442.430984156089835, 6705442.303710308857262 ], [ 718487.130451526958495, 6705520.851405959576368 ], [ 718555.437205326859839, 6705594.991560967639089 ], [ 718559.823087131255306, 6705629.728462776169181 ], [ 718663.869759954395704, 6705771.184959531761706 ], [ 718733.878847823129036, 6706016.696251430548728 ], [ 718749.385043415939435, 6706087.306478613056242 ], [ 718757.963061594287865, 6706217.253886879421771 ], [ 718750.01786254637409, 6706242.988579798489809 ], [ 718741.894208428799175, 6706681.981477003544569 ], [ 718752.84521698881872, 6706771.607643943279982 ], [ 718784.089715078356676, 6706837.77920809481293 ], [ 718826.630321735632606, 6706883.828387251123786 ], [ 718958.838138485676609, 6706815.376084222458303 ], [ 719126.383515531080775, 6706762.717899827286601 ], [ 719210.649371478240937, 6706757.949918384663761 ], [ 719281.339223029674031, 6706782.816156888380647 ], [ 719253.660117597668432, 6706831.441343694925308 ], [ 719418.9834762950195, 6706943.965357510372996 ], [ 719466.46876158611849, 6707021.950038963928819 ], [ 719466.97359835577663, 6707039.309206796810031 ], [ 719496.020945516880602, 6707087.557181999087334 ], [ 719788.209998692502268, 6707384.149628228507936 ], [ 719804.991045431117527, 6707404.361376176588237 ], [ 719820.503256525378674, 6707468.239608856849372 ], [ 719843.888616677140817, 6707528.784223510883749 ], [ 720157.613321347394958, 6707756.02380105946213 ], [ 720195.594787517213263, 6707816.616403558291495 ], [ 720337.26349816203583, 6708100.374924203380942 ], [ 720363.726608581375331, 6708243.777768581174314 ], [ 720470.598919291049242, 6708517.324234110303223 ], [ 720613.457683948567137, 6708773.072599146515131 ], [ 720720.979848319315352, 6708854.050831672735512 ], [ 720801.549065077793784, 6708934.935589972883463 ], [ 721011.660756994970143, 6709217.777926146052778 ], [ 721015.724934933357872, 6709338.689782296307385 ], [ 721028.708147948374972, 6709477.540905320085585 ], [ 721239.621451425133273, 6709527.543246458284557 ], [ 721468.124159607454203, 6709680.596927776001394 ] ] ] } },
{ "type": "Feature", "properties": { "id": 6, "long_km": 36.021 }, "geometry": { "type": "MultiLineString", "coordinates": [ [ [ 739374.553643410559744, 6706981.127980383113027 ], [ 739064.820662945159711, 6706934.290302409790456 ], [ 738963.091114335460588, 6706687.241408698260784 ], [ 738789.865103985182941, 6706376.998036158271134 ], [ 738534.048904332565144, 6706326.05549861676991 ], [ 738202.87143424176611, 6706113.35481785889715 ], [ 738053.692471985588782, 6705547.869376881979406 ], [ 738070.271073193755001, 6705064.050709137693048 ], [ 737753.741752872359939, 6704654.252439798787236 ], [ 737854.795929843559861, 6704314.308227782137692 ], [ 737901.14595122996252, 6704095.004496078006923 ], [ 737847.943018265999854, 6703978.140880706720054 ], [ 737713.250965092214756, 6703950.395152172073722 ], [ 737570.160856113536283, 6703828.48048940487206 ], [ 737355.163104395614937, 6703701.633143520914018 ], [ 737284.299970276770182, 6703530.871239144355059 ], [ 737289.160745296976529, 6703472.634037621319294 ], [ 737451.460609251633286, 6703401.938208723440766 ], [ 737537.503590945969336, 6703303.870922372676432 ], [ 737556.70331727375742, 6703111.250997729599476 ], [ 737530.99862088880036, 6702909.376500902697444 ], [ 737389.399943022290245, 6702545.386094364337623 ], [ 737217.847774950321764, 6701934.613454856909811 ], [ 737229.644979780772701, 6701486.340532008558512 ], [ 737397.819010313600302, 6701204.918771864846349 ], [ 737561.511162052396685, 6700923.460072436369956 ], [ 737612.118959055980667, 6700744.414467449299991 ], [ 737582.926184733631089, 6700380.999497078359127 ], [ 737391.364742732141167, 6700083.811715016141534 ], [ 737155.050120884669013, 6699745.971950022503734 ], [ 737472.887300724862143, 6699281.511566462926567 ], [ 737773.80063418042846, 6698655.439077129587531 ], [ 737748.604960357304662, 6696950.449034601449966 ], [ 737654.096979772904888, 6696236.370381308719516 ], [ 737282.204599517630413, 6695960.284479336813092 ], [ 737122.359868441126309, 6695604.742428046651185 ], [ 737232.027625917224213, 6695345.11483412515372 ], [ 737138.857262252247892, 6695124.606286644004285 ], [ 736979.092657077824697, 6694751.064762279391289 ], [ 736975.787484963540919, 6694558.028263792395592 ], [ 737022.903575401869603, 6694221.650021413341165 ], [ 736988.218173384433612, 6694005.955564566887915 ], [ 736810.289943230571225, 6693650.194734942167997 ], [ 736775.15033622761257, 6693506.312356179580092 ], [ 736998.682634945143946, 6693045.2484593661502 ], [ 736828.818716755136847, 6692837.655700527131557 ], [ 736435.30742801562883, 6692372.740021694451571 ], [ 736360.625483466777951, 6692062.435406177304685 ], [ 736096.79475752171129, 6691741.986112671904266 ], [ 735990.688389065791853, 6691409.007943650707603 ], [ 736482.437466174131259, 6690558.613506840541959 ], [ 736808.80488278483972, 6690241.691827615723014 ], [ 736820.588916629669257, 6689792.543300938792527 ], [ 736787.559135334566236, 6689302.650100887753069 ], [ 736766.770755146746524, 6689019.472243563272059 ], [ 736735.446850714390166, 6688250.934270964004099 ], [ 737193.343886157963425, 6687826.869646708481014 ], [ 737328.393041840288788, 6687135.619234710000455 ], [ 737182.788208114216104, 6686626.82478388492018 ], [ 737426.643069456797093, 6685846.210746797733009 ], [ 737582.574409247026779, 6684714.257953874766827 ], [ 737883.227111873100512, 6684244.039543697610497 ], [ 737879.083494527847506, 6683475.0553681794554 ], [ 737931.588050629943609, 6683021.162566184066236 ], [ 738598.402537766261958, 6682458.727921932935715 ], [ 739097.217669391422532, 6682075.14133648108691 ], [ 739321.945315204095095, 6681523.315094633027911 ], [ 739226.483136802795343, 6680942.341232510283589 ], [ 739356.131213315413333, 6680443.781196099705994 ], [ 739584.519832644611597, 6679351.836031790822744 ], [ 739664.065426775952801, 6678929.327931529842317 ], [ 739626.5096177397063, 6678465.505757385864854 ], [ 739246.750665205880068, 6677855.350548269227147 ], [ 739380.023846419528127, 6676816.328527919016778 ], [ 739077.508145323954523, 6676536.516412277705967 ], [ 739081.472979097394273, 6676275.402066939510405 ], [ 738922.578994495328516, 6676053.738344772718847 ], [ 738905.787292909575626, 6675857.759291402064264 ], [ 738768.423410948133096, 6675796.078686412423849 ], [ 738603.316734829568304, 6675833.284823573194444 ], [ 738389.150526868412271, 6675773.36885988805443 ], [ 738225.124990364769474, 6675641.733049765229225 ] ] ] } },
{ "type": "Feature", "properties": { "id": 7, "long_km": 93.37 }, "geometry": { "type": "MultiLineString", "coordinates": [ [ [ 693482.76340259774588, 6699948.88129373639822 ], [ 692942.14072681334801, 6699267.797017622739077 ], [ 692436.433568582753651, 6697833.005335159599781 ], [ 691984.907231166027486, 6696702.966374380514026 ], [ 691262.89352958695963, 6695429.524229319766164 ], [ 690558.497506501036696, 6694102.002587999217212 ], [ 690232.790351951844059, 6693186.702041787095368 ], [ 690626.25298503274098, 6691371.964853335171938 ], [ 691345.974210788379423, 6690634.301631676033139 ], [ 692354.951547219767235, 6690435.289987699128687 ], [ 693597.660928266239353, 6689643.229290840215981 ], [ 694155.730886076460592, 6688923.8412447841838 ], [ 695668.745678597013466, 6687179.067056277766824 ], [ 697435.350721844471991, 6685847.625688910484314 ], [ 698535.343933724681847, 6684912.187932014465332 ], [ 698589.245029866113327, 6683994.949097270146012 ], [ 698408.70009192370344, 6683527.335251829586923 ], [ 698534.699718323419802, 6682286.030914034694433 ], [ 698678.814676536829211, 6681098.453672504983842 ], [ 699021.564467533957213, 6679784.619246041402221 ], [ 699599.189844193868339, 6677894.382207197137177 ], [ 700755.268820740282536, 6676237.778871599584818 ], [ 701189.355817529023625, 6673643.9354860894382 ], [ 701732.03487341129221, 6671986.259772505611181 ], [ 702239.077244363026693, 6669715.210652683861554 ], [ 702637.967914947075769, 6667407.227485531009734 ], [ 702204.406895391060971, 6665639.280459442175925 ], [ 701625.600504595902748, 6664484.352380140684545 ], [ 701553.402431777212769, 6663690.319077746942639 ], [ 701770.909648470231332, 6662787.963671113364398 ], [ 702024.565852125990205, 6662282.6321841776371 ], [ 702930.088631133316085, 6661994.180695527233183 ], [ 703726.997464368352666, 6661777.994826497510076 ], [ 704850.14490905078128, 6661309.41008176933974 ], [ 705321.75703795615118, 6660479.264373355545104 ], [ 706011.900703075458296, 6658637.863445626571774 ], [ 705543.052605529897846, 6656216.604818094521761 ], [ 705037.497723698965274, 6653866.687165411189198 ], [ 705112.000340791768394, 6651552.530719699338078 ], [ 705150.327614802168682, 6649165.095966773107648 ], [ 704353.289962747017853, 6647174.188770769163966 ], [ 703846.040512048173696, 6645544.94717981107533 ], [ 704755.1534177379217, 6644024.899200257845223 ], [ 705119.704376759938896, 6642504.117690274491906 ], [ 705230.157716159243137, 6640837.828145645558834 ], [ 705121.431661756476387, 6640475.416353241540492 ], [ 705267.739919985644519, 6639424.697163074277341 ], [ 705232.111356435110793, 6638591.107146540656686 ], [ 704287.231303210253827, 6637974.177261536940932 ], [ 704506.924228422227316, 6635944.116749881766737 ], [ 703416.638208670425229, 6634275.208676633425057 ], [ 702907.798096069600433, 6633150.467065771110356 ], [ 702981.927524952450767, 6630429.137593856081367 ], [ 703638.274828939931467, 6628759.789265972562134 ], [ 705533.86809996154625, 6626727.921528455801308 ], [ 707903.109789586975239, 6625749.971835517324507 ], [ 709871.248798408661969, 6625389.650750935077667 ], [ 710601.608952523209155, 6624482.740627293474972 ], [ 711406.117543273139745, 6623030.885554235428572 ], [ 712867.469957124209031, 6621507.461301738396287 ] ] ] } },
{ "type": "Feature", "properties": { "id": 9, "long_km": 14.659 }, "geometry": { "type": "MultiLineString", "coordinates": [ [ [ 735033.535643776296638, 6636940.872007350437343 ], [ 736139.444999252795242, 6634897.478930594399571 ], [ 737149.912633995525539, 6634718.670132732950151 ], [ 738200.547540952684358, 6634212.194620370864868 ], [ 740154.73688582109753, 6633221.378563893958926 ], [ 739230.526589898043312, 6633679.981074423529208 ], [ 740198.508143583778292, 6633221.670571078546345 ], [ 744619.414933782536536, 6629412.999726565554738 ] ] ] } },
{ "type": "Feature", "properties": { "id": 16, "long_km": 74.692 }, "geometry": { "type": "MultiLineString", "coordinates": [ [ [ 740033.367654531029984, 6675927.351619932800531 ], [ 740082.473556452780031, 6675923.388154045678675 ], [ 740131.502743820543401, 6675918.572436650283635 ], [ 740180.440341285662726, 6675912.905926604755223 ], [ 740229.27150116476696, 6675906.390340538695455 ], [ 740277.981407926417887, 6675899.027652340009809 ], [ 740326.555282667395659, 6675890.820092555135489 ], [ 740374.978387578274123, 6675881.770147725008428 ], [ 740423.236030396656133, 6675871.880559640936553 ], [ 740471.313568847835995, 6675861.154324508272111 ], [ 740519.196415069163777, 6675849.594692061655223 ], [ 740566.870040019275621, 6675837.205164580605924 ], [ 740614.319977869628929, 6675823.989495831541717 ], [ 740661.531830376712605, 6675809.951689960435033 ], [ 740708.491271235398017, 6675795.096000263467431 ], [ 740755.184050409588963, 6675779.426927928812802 ], [ 740801.595998441101983, 6675762.949220672249794 ], [ 740847.713030733983032, 6675745.667871320620179 ], [ 740893.521151814144105, 6675727.588116297498345 ], [ 740939.006459561991505, 6675708.715434066951275 ], [ 740984.155149418162182, 6675689.055543472059071 ], [ 741028.953518558759242, 6675668.614402014762163 ], [ 741073.387970041949302, 6675647.398204083554447 ], [ 741117.445016922196373, 6675625.41337906755507 ], [ 741161.111286331317388, 6675602.666589438915253 ], [ 741204.373523527057841, 6675579.164728740230203 ], [ 741247.218595904996619, 6675554.91491952072829 ], [ 741289.633496974944137, 6675529.924511182121933 ], [ 741331.605350299505517, 6675504.201077778823674 ], [ 741373.121413393993862, 6675477.752415727823973 ], [ 741414.16908158629667, 6675450.58654148131609 ], [ 741454.735891836113296, 6675422.71168908663094 ], [ 741494.809526511118747, 6675394.136307742446661 ], [ 741534.377817120752297, 6675364.869059218093753 ], [ 741573.428748005186208, 6675334.9188152840361 ], [ 741611.950459978193976, 6675304.294655006378889 ], [ 741649.931253924034536, 6675273.005862040445209 ], [ 741687.359594346606173, 6675241.061921821907163 ], [ 741724.224112868774682, 6675208.472518711350858 ], [ 741760.513611683389172, 6675175.247533075511456 ], [ 741796.21706695179455, 6675141.397038316354156 ], [ 741831.323632151354104, 6675106.931297838687897 ], [ 741865.822641369770281, 6675071.860761941410601 ], [ 741899.703612545272335, 6675036.196064689196646 ], [ 741932.956250651972368, 6674999.948020694777369 ], [ 741965.570450829225592, 6674963.127621852792799 ], [ 741997.536301454529166, 6674925.746034042909741 ], [ 742028.844087157398462, 6674887.814593757502735 ], [ 742059.48429177608341, 6674849.344804666005075 ], [ 742089.447601253632456, 6674810.348334168083966 ], [ 742118.724906473304145, 6674770.837009859271348 ], [ 742147.30730603390839, 6674730.822815969586372 ], [ 742175.186108960653655, 6674690.317889745347202 ], [ 742202.352837355574593, 6674649.334517776034772 ], [ 742228.799228981137276, 6674607.885132304392755 ], [ 742254.517239782377146, 6674565.98230745550245 ], [ 742279.499046340584755, 6674523.638755447231233 ], [ 742303.737048262730241, 6674480.867322751320899 ], [ 742327.223870502784848, 6674437.680986208841205 ], [ 742349.952365616685711, 6674394.092849110253155 ], [ 742371.915615946636535, 6674350.116137244738638 ], [ 742393.106935739284381, 6674305.764194888062775 ], [ 742413.519873191369697, 6674261.050480773672462 ], [ 742433.148212426807731, 6674215.988564033992589 ], [ 742451.985975402407348, 6674170.592120083980262 ], [ 742470.027423741179518, 6674124.874926486052573 ], [ 742487.26706049463246, 6674078.850858792662621 ], [ 742503.699631831375882, 6674032.533886333927512 ], [ 742519.32012865296565, 6673985.938068004325032 ], [ 742534.123788136290386, 6673939.077547997236252 ], [ 742548.10609520052094, 6673891.966551520861685 ], [ 742561.26278390083462, 6673844.619380502961576 ], [ 742573.589838745305315, 6673797.050409249030054 ], [ 742585.083495937753469, 6673749.274080093018711 ], [ 742595.7402445434127, 6673701.304899016395211 ], [ 742605.556827578810044, 6673653.157431262545288 ], [ 742614.530243024579249, 6673604.846296911127865 ], [ 742622.657744761207141, 6673556.386166446842253 ], [ 742629.936843427829444, 6673507.791756327264011 ], [ 742636.365307202329859, 6673459.077824496664107 ], [ 742641.941162504255772, 6673410.259165926836431 ], [ 742646.662694619619288, 6673361.35060812253505 ], [ 742650.528448246535845, 6673312.367006613872945 ], [ 742653.537227963213809, 6673263.323240467347205 ], [ 742655.688098615733907, 6673214.234207750298083 ], [ 742656.980385628296062, 6673165.114821018651128 ], [ 742657.413675233954564, 6673115.980002783238888 ], [ 742656.987814625608735, 6673066.844680978916585 ], [ 742655.70291202806402, 6673017.723784425295889 ], [ 742653.559336691396311, 6672968.632238299585879 ], [ 742650.557718803989701, 6672919.584959593601525 ], [ 742646.698949326993898, 6672870.596852579154074 ], [ 742685.569964845199138, 6672805.58769894298166 ], [ 742723.317830840707757, 6672739.923098253086209 ], [ 742759.93142166279722, 6672673.622317959554493 ], [ 742795.399943772121333, 6672606.70481348503381 ], [ 742829.712938946322538, 6672539.190222540870309 ], [ 742862.860287389019504, 6672471.098359405063093 ], [ 742894.832210739492439, 6672402.449209148064256 ], [ 742925.619274985045195, 6672333.262921788729727 ], [ 742955.212393272784539, 6672263.559806425124407 ], [ 742983.60282862058375, 6672193.360325299203396 ], [ 743010.782196527696215, 6672122.685087816789746 ], [ 743036.742467481759377, 6672051.554844537749887 ], [ 743061.475969363935292, 6671979.990481096319854 ], [ 743084.975389749510214, 6671908.013012118637562 ], [ 743107.233778104186058, 6671835.643575059249997 ], [ 743128.244547875365242, 6671762.903424023650587 ], [ 743148.001478476799093, 6671689.813923558220267 ], [ 743166.498717167880386, 6671616.396542385220528 ], [ 743183.730780824902467, 6671542.672847132198513 ], [ 743199.692557604284957, 6671468.664496004581451 ], [ 743214.379308499279432, 6671394.393232455477118 ], [ 743227.786668785265647, 6671319.880878799594939 ], [ 743239.910649357945658, 6671245.149329829029739 ], [ 743250.747637961059809, 6671170.220546388998628 ], [ 743260.294400303508155, 6671095.116548946127295 ], [ 743268.548081066459417, 6671019.859411114826798 ], [ 743275.506204799166881, 6670944.471253192983568 ], [ 743281.166676704306155, 6670868.974235662259161 ], [ 743285.527783310273662, 6670793.390552685596049 ], [ 743288.588193033472635, 6670717.742425590753555 ], [ 743290.346956627094187, 6670642.052096328698099 ], [ 743290.803507518488914, 6670566.341820956207812 ], [ 743289.957662033615634, 6670490.633863084949553 ], [ 743287.809619509498589, 6670414.950487329624593 ], [ 743284.359962293179706, 6670339.313952763564885 ], [ 743279.609655629261397, 6670263.746506376191974 ], [ 743273.560047433245927, 6670188.270376511849463 ], [ 743266.21286795323249, 6670112.90776633657515 ], [ 743257.57022931787651, 6670037.68084729462862 ], [ 743247.634624973172322, 6669962.611752581782639 ], [ 743236.408929004799575, 6669887.722570613026619 ], [ 743223.896395349875093, 6669813.035338521003723 ], [ 743210.100656894734129, 6669738.572035658173263 ], [ 743195.025724462466314, 6669664.354577108286321 ], [ 743178.67598568671383, 6669590.404807225801051 ], [ 743161.056203775457107, 6669516.744493190199137 ], [ 743142.171516162808985, 6669443.395318572409451 ], [ 743122.027433049748652, 6669370.378876940347254 ], [ 743100.629835835075937, 6669297.716665480285883 ], [ 743077.984975435305387, 6669225.430078640580177 ], [ 743054.099470495246351, 6669153.540401809848845 ], [ 743028.980305489385501, 6669082.068805027753115 ], [ 743002.634828714421019, 6669011.036336722783744 ], [ 742540.94878641248215, 6667344.075819496065378 ], [ 742540.94878641248215, 6667344.075819496065378 ], [ 742674.551360709825531, 6667176.201307219453156 ], [ 742810.840191340772435, 6667010.478939296677709 ], [ 742949.780425534117967, 6666846.951547676697373 ], [ 743091.336519387667067, 6666685.661404011771083 ], [ 743235.472246911376715, 6666526.650208463892341 ], [ 743382.150709256646223, 6666369.95907861739397 ], [ 743531.334344130475074, 6666215.628538588993251 ], [ 743682.984935391927138, 6666063.698508249595761 ], [ 743837.063622827758081, 6665914.208292623050511 ], [ 743838.844631727552041, 6665901.295357179827988 ], [ 743840.851213701069355, 6665888.415322073735297 ], [ 743843.082760196877643, 6665875.572103090584278 ], [ 743845.538594261277467, 6665862.769604878500104 ], [ 743848.217970742378384, 6665850.011719753965735 ], [ 743851.120076514780521, 6665837.302326518110931 ], [ 743854.24403072532732, 6665824.645289283245802 ], [ 743857.588885059347376, 6665812.044456285424531 ], [ 743861.153624026570469, 6665799.503658724948764 ], [ 743864.937165269278921, 6665787.026709600351751 ], [ 743868.93835988920182, 6665774.617402536794543 ], [ 743873.155992795131169, 6665762.27951064798981 ], [ 743877.588783071143553, 6665750.016785373911262 ], [ 743882.23538436437957, 6665737.832955349236727 ], [ 743887.094385292730294, 6665725.731725266203284 ], [ 743892.164309873245656, 6665713.716774742119014 ], [ 743897.443617968587205, 6665701.791757203638554 ], [ 743902.930705754435621, 6665689.9602987812832 ], [ 743908.62390620552469, 6665678.225997191853821 ], [ 743914.521489601582289, 6665666.592420654371381 ], [ 743920.621664051781408, 6665655.0631067994982 ], [ 743926.922576038283296, 6665643.641561596654356 ], [ 743933.422310978756286, 6665632.331258278340101 ], [ 743940.11889380752109, 6665621.135636297054589 ], [ 743947.010289574624039, 6665610.058100260794163 ], [ 743954.094404064235277, 6665599.102018905803561 ], [ 743961.369084429577924, 6665588.270724076777697 ], [ 743968.8321198472986, 6665577.567509703338146 ], [ 743976.48124218871817, 6665566.995630795136094 ], [ 743984.314126708195545, 6665556.558302462100983 ], [ 743992.328392749885097, 6665546.258698922581971 ], [ 744000.52160447021015, 6665536.099952545017004 ], [ 744008.891271578846499, 6665526.085152892395854 ], [ 744017.434850094025023, 6665516.217345783486962 ], [ 744026.149743116809987, 6665506.499532353132963 ], [ 744035.033301619114354, 6665496.934668158181012 ], [ 744044.082825249875896, 6665487.525662254542112 ], [ 744053.295563154737465, 6665478.275376334786415 ], [ 744062.668714812840335, 6665469.186623835936189 ], [ 744072.199430887820199, 6665460.262169095687568 ], [ 744081.884814094169997, 6665451.504726503975689 ], [ 744091.721920077921823, 6665442.91695967502892 ], [ 744101.707758312113583, 6665434.501480640843511 ], [ 744111.839293005410582, 6665426.260849059559405 ], [ 744122.113444026443176, 6665418.197571415454149 ], [ 744132.527087839087471, 6665410.314100278541446 ], [ 744143.077058453462087, 6665402.612833547405899 ], [ 744153.760148388333619, 6665395.096113712526858 ], [ 744164.573109646444209, 6665387.766227155923843 ], [ 744175.512654703343287, 6665380.625403437763453 ], [ 744186.575457506231032, 6665373.675814638845623 ], [ 744197.758154486771673, 6665366.919574678875506 ], [ 744209.057345583569258, 6665360.358738672919571 ], [ 744220.46959527709987, 6665353.995302323251963 ], [ 744231.99143363465555, 6665347.831201297231019 ], [ 744243.619357366114855, 6665341.868310634046793 ], [ 744255.349830890190788, 6665336.108444179408252 ], [ 744267.179287409526296, 6665330.553354038856924 ], [ 744279.104129997082055, 6665325.204730032943189 ], [ 744291.120732689509168, 6665320.064199180342257 ], [ 744303.225441591697745, 6665315.133325218223035 ], [ 744315.414575987844728, 6665310.413608106784523 ], [ 744327.684429462300614, 6665305.906483584083617 ], [ 744340.031271027168259, 6665301.613322723656893 ], [ 744352.451346257934347, 6665297.535431515425444 ], [ 744364.940878436318599, 6665293.674050471745431 ], [ 744377.496069699525833, 6665290.03035425208509 ], [ 744390.113102196715772, 6665286.605451284907758 ], [ 744402.788139250362292, 6665283.400383461266756 ], [ 744415.517326524597593, 6665280.416125791147351 ], [ 744428.296793198562227, 6665277.653586117550731 ], [ 744441.122653144411743, 6665275.113604840822518 ], [ 744453.991006110329181, 6665272.796954654157162 ], [ 744466.89793890772853, 6665270.704340315423906 ], [ 744479.839526602998376, 6665268.836398432031274 ], [ 744492.811833711690269, 6665267.193697262555361 ], [ 744505.810915396781638, 6665265.776736548170447 ], [ 744518.832818669849075, 6665264.585947353392839 ], [ 744531.873583594337106, 6665263.621691944077611 ], [ 744544.929244491038844, 6665262.884263672865927 ], [ 744557.995831145439297, 6665262.373886879533529 ], [ 744571.06937001622282, 6665262.090716845355928 ], [ 744584.145885445410386, 6665262.034839721396565 ], [ 744597.221400868380442, 6665262.20627251919359 ], [ 744610.291940024355426, 6665262.604963096790016 ], [ 744623.353528167703189, 6665263.2307901782915 ], [ 744636.402193276677281, 6665264.083563387393951 ], [ 744649.433967264136299, 6665265.16302331443876 ], [ 744662.444887184305117, 6665266.46884158346802 ], [ 744675.430996440467425, 6665268.000620959326625 ], [ 744688.38834598835092, 6665269.75789546687156 ], [ 744701.312995538813993, 6665271.740130534395576 ], [ 744714.201014757854864, 6665273.946723154745996 ], [ 744727.048484462429769, 6665276.377002066932619 ], [ 744739.851497813593596, 6665279.030227972194552 ], [ 744752.606161506148055, 6665281.905593743547797 ], [ 744765.308596953749657, 6665285.002224683761597 ], [ 744777.95494146947749, 6665288.319178785197437 ], [ 744790.541349441395141, 6665291.855447018519044 ], [ 744803.063993504038081, 6665295.609953642822802 ], [ 744815.5190657019848, 6665299.581556534394622 ], [ 744827.902778650633991, 6665303.769047528505325 ], [ 744840.211366687202826, 6665308.171152791939676 ], [ 744852.441087018698454, 6665312.786533214151859 ], [ 744864.588220859644935, 6665317.613784807734191 ], [ 744876.649074564455077, 6665322.651439145207405 ], [ 744888.619980752002448, 6665327.897963804192841 ], [ 744900.497299420763738, 6665333.351762820966542 ], [ 744912.277419057441875, 6665339.011177206411958 ], [ 744923.956757735460997, 6665344.874485419131815 ], [ 744935.531764205195941, 6665350.939903912134469 ], [ 744946.998918974539265, 6665357.205587670207024 ], [ 744958.354735380038619, 6665363.669630763120949 ], [ 744969.595760647207499, 6665370.330066946335137 ], [ 744980.71857694152277, 6665377.18487024307251 ], [ 744991.719802408362739, 6665384.231955562718213 ], [ 745002.596092201420106, 6665391.469179352745414 ], [ 745013.344139500637539, 6665398.89434022270143 ], [ 745023.960676517686807, 6665406.505179656669497 ], [ 745034.442475490737706, 6665414.2993826540187 ], [ 745044.786349665606394, 6665422.274578471668065 ], [ 745054.989154265029356, 6665430.428341328166425 ], [ 745065.047787445248105, 6665438.758191148750484 ], [ 745074.959191239904612, 6665447.261594320647418 ], [ 745084.720352488569915, 6665455.935964463278651 ], [ 745094.328303754446097, 6665464.778663219884038 ], [ 745103.780124226002954, 6665473.787001051940024 ], [ 745141.141601170646027, 6665435.824879444204271 ], [ 745179.16127573302947, 6665398.517358584329486 ], [ 745217.827609645202756, 6665361.875785091891885 ], [ 745257.128867530962452, 6665325.911303468048573 ], [ 745297.053120468510315, 6665290.634852677583694 ], [ 745337.588249613530934, 6665256.057162805460393 ], [ 745378.721949879662134, 6665222.188751766458154 ], [ 745420.441733677638695, 6665189.039922084659338 ], [ 745462.734934710082598, 6665156.620757742784917 ], [ 745505.588711822172627, 6665124.941121075302362 ], [ 745548.990052905632183, 6665094.010649774223566 ], [ 745592.925778856850229, 6665063.838753909803927 ], [ 745637.382547585526481, 6665034.434613059274852 ], [ 745682.346858073724434, 6665005.807173492386937 ], [ 745727.805054485565051, 6664977.965145423077047 ], [ 745773.743330322671682, 6664950.917000344023108 ], [ 745820.147732628509402, 6664924.670968430116773 ], [ 745867.004166236729361, 6664899.235036008059978 ], [ 745914.298398063518107, 6664874.616943111643195 ], [ 745962.016061443719082, 6664850.824181104078889 ], [ 746010.142660507466644, 6664827.863990386947989 ], [ 746058.663574597332627, 6664805.743358170613647 ], [ 746107.564062723657116, 6664784.469016334041953 ], [ 746156.829268057830632, 6664764.04743935726583 ], [ 746206.444222461548634, 6664744.484842339530587 ], [ 746256.393851049710065, 6664725.787179078906775 ], [ 746306.662976787309162, 6664707.96014026645571 ], [ 746357.236325118225068, 6664691.009151714853942 ], [ 746408.098528622998856, 6664674.939372710883617 ], [ 746459.234131707111374, 6664659.755694427527487 ], [ 746510.627595315454528, 6664645.46273840777576 ], [ 746562.263301672646776, 6664632.064855169504881 ], [ 746614.125559049309231, 6664619.566122852265835 ], [ 746666.198606549529359, 6664607.970345969311893 ], [ 746718.466618920559995, 6664597.281054237857461 ], [ 746770.913711383007467, 6664587.501501501537859 ], [ 746823.523944478365593, 6664578.634664723649621 ], [ 746876.281328934943303, 6664570.683243069797754 ], [ 746929.169830547994934, 6664563.649657092057168 ], [ 746982.173375074286014, 6664557.536047977395356 ], [ 747035.275853140163235, 6664552.344276879914105 ], [ 747088.461125158239156, 6664548.075924364849925 ], [ 747141.713026255834848, 6664544.732289921492338 ], [ 747148.616844790871255, 6664507.630656259134412 ], [ 747156.16795390995685, 6664470.654337490908802 ], [ 747164.364074131008238, 6664433.814556895755231 ], [ 747173.202730103745125, 6664397.122496721334755 ], [ 747182.681251347064972, 6664360.589294793084264 ], [ 747192.796773046138696, 6664324.22604111675173 ], [ 747203.546236907946877, 6664288.043774514459074 ], [ 747214.926392076187767, 6664252.05347927287221 ], [ 747226.933796104858629, 6664216.266081785783172 ], [ 747239.564815990161151, 6664180.692447246983647 ], [ 747252.81562926073093, 6664145.343376332893968 ], [ 747266.682225125608966, 6664110.229601927101612 ], [ 747281.16040567914024, 6664075.361785849556327 ], [ 747296.245787163847126, 6664040.750515600666404 ], [ 747311.933801289764233, 6664006.406301163136959 ], [ 747328.219696609652601, 6663972.339571779593825 ], [ 747345.098539950675331, 6663938.560672782361507 ], [ 747362.565217901952565, 6663905.079862457700074 ], [ 747380.614438356016763, 6663871.907308894209564 ], [ 747399.240732105914503, 6663839.05308691598475 ], [ 747418.438454496441409, 6663806.52717499434948 ], [ 747438.201787128462456, 6663774.33945220708847 ], [ 747458.524739617016166, 6663742.499695237725973 ], [ 747479.401151401689276, 6663711.017575386911631 ], [ 747500.824693608796224, 6663679.902655636891723 ], [ 747522.78887096629478, 6663649.164387721568346 ], [ 747545.287023768294603, 6663618.812109251506627 ], [ 747568.312329890555702, 6663588.855040866881609 ], [ 747591.857806856161915, 6663559.302283431403339 ], [ 747615.916313949157484, 6663530.162815244868398 ], [ 747640.480554378475063, 6663501.445489308796823 ], [ 747665.543077487614937, 6663473.159030631184578 ], [ 747691.096281013684347, 6663445.312033561989665 ], [ 747717.13241339137312, 6663417.91295916121453 ], [ 747743.643576103029773, 6663390.970132636837661 ], [ 747770.62172607483808, 6663364.491740779951215 ], [ 747798.058678115834482, 6663338.485829484649003 ], [ 747825.946107402211055, 6663312.960301282815635 ], [ 747854.275552002713084, 6663287.922912935726345 ], [ 747883.038415448158048, 6663263.381273059174418 ], [ 747912.225969340302981, 6663239.342839809134603 ], [ 747941.829356003203429, 6663215.81491859536618 ], [ 747971.839591172290966, 6663192.804659859277308 ], [ 748002.247566724428907, 6663170.319056877866387 ], [ 748033.044053444056772, 6663148.364943641237915 ], [ 748064.219703828566708, 6663126.948992749676108 ], [ 748095.765054928255267, 6663106.077713389880955 ], [ 748127.670531223062426, 6663085.757449333555996 ], [ 748159.926447533653118, 6663065.994377007707953 ], [ 748192.523011965444311, 6663046.794503605924547 ], [ 748225.450328886858188, 6663028.16366524156183 ], [ 748258.698401938541792, 6663010.107525178231299 ], [ 748292.257137074018829, 6662992.631572088226676 ], [ 748326.116345629910938, 6662975.74111838452518 ], [ 748360.265747425961308, 6662959.441298586316407 ], [ 748394.694973893114366, 6662943.737067751586437 ], [ 748429.393571228603832, 6662928.633199970237911 ], [ 748464.351003577001393, 6662914.134286890737712 ], [ 748499.556656237691641, 6662900.244736327789724 ], [ 748534.999838895280845, 6662886.968770909123123 ], [ 748570.669788874336518, 6662874.310426780954003 ], [ 748606.555674415780231, 6662862.273552376776934 ], [ 748642.646597975166515, 6662850.861807243898511 ], [ 748678.931599540519528, 6662840.078660913743079 ], [ 748715.399659970426001, 6662829.927391852252185 ], [ 748752.039704349241219, 6662820.411086451262236 ], [ 748788.840605360572226, 6662811.532638077624142 ], [ 748825.791186675895005, 6662803.29474619962275 ], [ 748812.824662385042757, 6662638.209884393028915 ], [ 748802.718171413405798, 6662472.922123605385423 ], [ 748795.474961422965862, 6662307.480693463236094 ], [ 748791.097427672124468, 6662141.934877508319914 ], [ 748789.587112020584755, 6661976.333998552523553 ], [ 748790.944702185690403, 6661810.727403990924358 ], [ 748795.170031255926006, 6661645.164451094344258 ], [ 748802.262077455990948, 6661479.694492314010859 ], [ 748812.218964169034734, 6661314.366860551759601 ], [ 748825.037960212794133, 6661149.23085443302989 ], [ 748840.715480372309685, 6660984.335723597556353 ], [ 748859.247086187358946, 6660819.730653966777027 ], [ 748880.627486996585503, 6660655.464753047563136 ], [ 748904.850541237276047, 6660491.587035222910345 ], [ 748931.909258000436239, 6660328.146407088264823 ], [ 748961.795798842096701, 6660165.191652795299888 ], [ 748994.501479849684983, 6660002.771419417113066 ], [ 749030.016773964161985, 6659840.934202359989285 ], [ 749068.331313556060195, 6659679.7283308012411 ], [ 749109.433893256471492, 6659519.201953177340329 ], [ 749153.31247304182034, 6659359.403022697195411 ], [ 749199.954181571258232, 6659200.379282931797206 ], [ 749249.345319777610712, 6659042.178253432735801 ], [ 749301.471364708268084, 6658884.847215427085757 ], [ 749356.316973619163036, 6658728.433197569102049 ], [ 749413.865988317062147, 6658572.982961754314601 ], [ 749474.101439750753343, 6658418.54298900719732 ], [ 749537.005552851594985, 6658265.159465458244085 ], [ 749602.559751618071459, 6658112.878268380649388 ], [ 749670.744664448779076, 6657961.744952318258584 ], [ 749741.540129716857336, 6657811.804735323414207 ], [ 749814.925201587961055, 6657663.102485249750316 ], [ 749890.878156079910696, 6657515.68270617723465 ], [ 749969.376497361226939, 6657369.589524924755096 ], [ 750050.396964286919683, 6657224.866677666082978 ], [ 750133.915537171298638, 6657081.557496673427522 ], [ 750219.907444795477204, 6656939.70489714294672 ], [ 750308.347171645145863, 6656799.351364179514349 ], [ 750399.208465381409042, 6656660.538939882069826 ], [ 750492.464344537234865, 6656523.309210550971329 ], [ 750588.087106442661025, 6656387.703294040635228 ], [ 750686.048335371888243, 6656253.761827254667878 ], [ 750786.318910913192667, 6656121.524953749030828 ], [ 750888.869016557466239, 6655991.032311520539224 ], [ 750993.668148504337296, 6655862.323020900599658 ], [ 751100.685124681447633, 6655735.435672644525766 ], [ 751209.888093976886012, 6655610.408316131681204 ], [ 751321.244545679073781, 6655487.278447765856981 ], [ 751434.721319124102592, 6655366.082999511621892 ], [ 751550.28461354598403, 6655246.858327594585717 ], [ 751667.899998127832077, 6655129.640201414935291 ], [ 751787.532422249903902, 6655014.463792569935322 ], [ 751909.14622593310196, 6654901.363664109259844 ], [ 752032.705150473047979, 6654790.373759945854545 ], [ 752158.172349262982607, 6654681.527394449338317 ], [ 752285.510398801998235, 6654574.857242248021066 ], [ 752414.681309883715585, 6654470.395328203216195 ], [ 752545.646538964589126, 6654368.173017579130828 ], [ 752678.366999706369825, 6654268.22100643441081 ], [ 752812.803074690396897, 6654170.569312171079218 ], [ 752948.914627299527638, 6654075.247264347970486 ], [ 753086.661013763863593, 6653982.283495639450848 ], [ 753226.001095367595553, 6653891.705933052115142 ], [ 753366.893250812427141, 6653803.541789324954152 ], [ 753509.295388733502477, 6653717.817554576322436 ], [ 753653.164960364927538, 6653634.55898813251406 ], [ 753798.458972350344993, 6653553.791110610589385 ], [ 753945.133999694488011, 6653475.538196210749447 ], [ 754093.14619885222055, 6653399.823765237815678 ], [ 754242.45132095029112, 6653326.67057685367763 ], [ 754393.004725138074718, 6653256.100622066296637 ], [ 754544.761392063694075, 6653188.135116944089532 ], [ 754697.675937469932251, 6653122.794496076181531 ], [ 754851.702625906793401, 6653060.098406267352402 ], [ 755006.795384556055069, 6653000.06570047326386 ], [ 755162.907817163737491, 6652942.714431988075376 ], [ 755319.993218074901961, 6652888.061848856508732 ], [ 755478.004586368333548, 6652836.124388563446701 ], [ 755636.894640085287392, 6652786.917672947980464 ], [ 755796.615830546943471, 6652740.45650336984545 ], [ 755957.120356759638526, 6652696.754856152459979 ], [ 756118.360179897514172, 6652655.825878244824708 ], [ 756280.287037864560261, 6652617.681883171200752 ], [ 756442.852459925925359, 6652582.334347208961844 ], [ 756606.007781406748109, 6652549.793905851431191 ], [ 756769.70415845385287, 6652520.070350511930883 ], [ 756708.85996133054141, 6647079.555466338992119 ], [ 751682.542027542018332, 6641531.034956030547619 ], [ 744271.832271290477365, 6639256.60127012245357 ], [ 737486.118450409849174, 6637754.286115640774369 ], [ 727965.396772188134491, 6636182.629064066335559 ], [ 724965.854803447029553, 6639398.728579836897552 ] ] ] } },
{ "type": "Feature", "properties": { "id": 17, "long_km": 26.655 }, "geometry": { "type": "MultiLineString", "coordinates": [ [ [ 694672.808331683394499, 6702077.817103917710483 ], [ 694700.075391957652755, 6702164.066579269245267 ], [ 694725.838010671897791, 6702250.773136928677559 ], [ 694750.088507352513261, 6702337.91068631503731 ], [ 694772.819657169864513, 6702425.453009457327425 ], [ 694794.024693034007214, 6702513.373768901452422 ], [ 694813.697307553491555, 6702601.646515691652894 ], [ 694831.831654852838255, 6702690.24469733145088 ], [ 694848.422352251363918, 6702779.141665811650455 ], [ 694863.464481801027432, 6702868.310685636475682 ], [ 694876.953591683530249, 6702957.724941911175847 ], [ 694888.885697466786951, 6703047.357548403553665 ], [ 694899.257283219136298, 6703137.181555654853582 ], [ 694908.065302483155392, 6703227.169959102757275 ], [ 694915.307179106632248, 6703317.295707212761045 ], [ 694920.980807932559401, 6703407.531709620729089 ], [ 694925.084555346053094, 6703497.850845285691321 ], [ 694927.617259680409916, 6703588.2259706472978 ], [ 694928.578231479623355, 6703678.629927800968289 ], [ 694927.96725362027064, 6703769.035552639514208 ], [ 694925.784581290208735, 6703859.415683040395379 ], [ 694922.030941826174967, 6703949.743167012929916 ], [ 694916.707534409244545, 6704039.990870848298073 ], [ 694909.816029618377797, 6704130.13168727979064 ], [ 694901.358568843570538, 6704220.138543594628572 ], [ 694891.337763557210565, 6704309.984409784898162 ], [ 694879.756694444920868, 6704399.64230662304908 ], [ 694866.618910396005958, 6704489.085313766263425 ], [ 694851.928427353966981, 6704578.28657781612128 ], [ 694835.689727027784102, 6704667.219320369884372 ], [ 694817.907755463267677, 6704755.856846029870212 ], [ 694798.587921477505006, 6704844.172550397925079 ], [ 694777.736094953375868, 6704932.139928036369383 ], [ 694755.358604998560622, 6705019.732580396346748 ], [ 694731.462237966596149, 6705106.924223703332245 ], [ 694706.054235342657194, 6705193.688696822151542 ], [ 694679.142291493946686, 6705279.999969077296555 ], [ 694650.73455128504429, 6705365.832148012705147 ], [ 694620.839607560541481, 6705451.159487130120397 ], [ 694589.466498493682593, 6705535.956393582746387 ], [ 694556.624704804155044, 6705620.197435797192156 ], [ 694522.324146843864582, 6705703.857351065613329 ], [ 694486.575181553256698, 6705786.911053074523807 ], [ 694449.388599287951365, 6705869.333639393560588 ], [ 694410.775620518135838, 6705951.100398870185018 ], [ 694370.747892399900593, 6706032.186819024384022 ], [ 694329.317485221195966, 6706112.568593318574131 ], [ 694286.496888723224401, 6706192.221628407016397 ], [ 694242.299008297617547, 6706271.122051296755672 ], [ 694196.737161061726511, 6706349.246216461062431 ], [ 694149.825071811908856, 6706426.570712859742343 ], [ 694101.576868858537637, 6706503.072370901703835 ], [ 694052.007079740054905, 6706578.728269333019853 ], [ 694001.130626821657643, 6706653.515742043033242 ], [ 693948.962822777568363, 6706727.412384795956314 ], [ 693895.519365958170965, 6706800.396061891689897 ], [ 693840.816335644572973, 6706872.444912726059556 ], [ 693784.870187191758305, 6706943.537358272820711 ], [ 693647.116982604959048, 6707332.344833567738533 ], [ 693502.601542969467118, 6707718.676570293493569 ], [ 693351.368958922219463, 6708102.41603232268244 ], [ 693193.466329297167249, 6708483.447510656900704 ], [ 693028.942745475796983, 6708861.65615738928318 ], [ 692857.849275176529773, 6709236.928019337356091 ], [ 692680.238945688586682, 6709609.150071380659938 ], [ 692496.166726557887159, 6709978.210249454714358 ], [ 692305.689511730568483, 6710343.997483242303133 ], [ 692108.866101161693223, 6710706.401728482916951 ], [ 691905.757181895431131, 6711065.313998978585005 ], [ 691696.42530862451531, 6711420.626398205757141 ], [ 691480.934883735142648, 6711772.232150584459305 ], [ 691259.352136845001951, 6712120.025632369332016 ], [ 691031.74510384153109, 6712463.90240216255188 ], [ 690798.183605427737348, 6712803.75923103094101 ], [ 690558.739225183264352, 6713139.494132246822119 ], [ 690313.485287147690542, 6713471.00639062281698 ], [ 690062.496832933858968, 6713798.196591414511204 ], [ 689805.850598379620351, 6714120.966648847796023 ], [ 689543.624989743460901, 6714439.219834200106561 ], [ 689275.900059455540031, 6714752.860803459770977 ], [ 689002.757481427164748, 6715061.795624553225935 ], [ 688724.280525931855664, 6715365.931804127991199 ], [ 688440.55403406068217, 6715665.178313894197345 ], [ 688151.664391764905304, 6715959.44561652559787 ], [ 688005.933266023756005, 6716250.984416791237891 ], [ 687855.164753312361427, 6716539.948343827389181 ], [ 687699.404778699274175, 6716826.251161014661193 ], [ 687538.70074318209663, 6717109.807450820691884 ], [ 687373.101508812862448, 6717390.532639590092003 ], [ 687202.657383416895755, 6717668.343022030778229 ], [ 687027.420104909338988, 6717943.155785444192588 ], [ 686847.442825216683559, 6718214.889033662155271 ], [ 686662.78009380644653, 6718483.461810687556863 ], [ 686473.487840832560323, 6718748.794124038890004 ], [ 686279.623359900317155, 6719010.806967788375914 ], [ 686081.245290457969531, 6719269.422345300205052 ], [ 685878.413599819527008, 6719524.563291642814875 ], [ 685671.189564825152047, 6719776.153895673342049 ], [ 685459.635753145208582, 6720024.119321821257472 ], [ 685243.816004233318381, 6720268.385831509716809 ], [ 685023.795409934711643, 6720508.88080426491797 ], [ 684799.640294755692594, 6720745.532758477143943 ], [ 684571.41819580073934, 6720978.271371793933213 ], [ 684339.19784238259308, 6721207.027501203119755 ], [ 684103.049135313020088, 6721431.733202711679041 ], [ 683863.043125878204592, 6721652.321750720031559 ], [ 683619.251994507620111, 6721868.727656961418688 ], [ 683371.749029140453786, 6722080.88668914232403 ], [ 683120.608603297267109, 6722288.735889154486358 ], [ 682865.906153863645159, 6722492.213590949773788 ], [ 682607.718158591073006, 6722691.259437990374863 ], [ 682346.122113322024234, 6722885.814400353468955 ], [ 682081.196508946595713, 6723075.820791427977383 ], [ 681813.020808095810935, 6723261.22228420432657 ], [ 681541.675421580323018, 6723441.963927198201418 ], [ 681267.241684578009881, 6723617.992159942165017 ], [ 680989.80183258082252, 6723789.254828093573451 ] ] ] } }
]
}
